[
    {
        "Altitude(m)": 607897.612045101,
        "Argument of Periapsis(deg)": 0.0,
        "Eccentricity": 0.0,
        "Inclination(deg)": 60.0,
        "Latitude(deg)": -14.292919916624227,
        "Longitude(deg)": 46.61877804774369,
        "Mean Anomaly(deg)": -16.363600000000062,
        "RAAN(deg)": 155.0,
        "Satellite Name": "Test1 703",
        "Satellite Number": 703,
        "Semi-Major Axis(m)": 6980739.136638005,
        "Time(s)": 0
    },
    {
        "Altitude(m)": 607750.8133418723,
        "Argument of Periapsis(deg)": 0.00010418945913296404,
        "Eccentricity": 0.0,
        "Inclination(deg)": 60.0,
        "Latitude(deg)": -13.758760859920574,
        "Longitude(deg)": 46.90584606469595,
        "Mean Anomaly(deg)": -15.74349385453821,
        "RAAN(deg)": 154.99957995086027,
        "Satellite Name": "Test1 703",
        "Satellite Number": 703,
        "Semi-Major Axis(m)": 6980739.136638005,
        "Time(s)": 10
    }
]